{
  "type": "FeatureCollection",
  "features": [
    {
      "type": "Feature",
      "properties": {
        "Point": "Walter Carbonell (1920-2008)",
        "Description": "Afro-Marxist thinker linked to Négritude and Cuban revolutionary state"
      },
      "geometry": {
        "type": "Point",
        "coordinates": [
          -82.3666,
          23.1136
        ]
      }
    },
    {
      "type": "Feature",
      "properties": {
        "Point": "Tricontinental Conference (1966)",
        "Description": "Cuban internationalism and Tricontinental discourse"
      },
      "geometry": {
        "type": "Point",
        "coordinates": [
          -82.3666,
          23.1136
        ]
      }
    },
    {
      "type": "Feature",
      "properties": {
        "Point": "Cultural Congress of Havana (1968)",
        "Description": "Cultural Congress ideological framing"
      },
      "geometry": {
        "type": "Point",
        "coordinates": [
          -82.3666,
          23.1136
        ]
      }
    },
    {
      "type": "Feature",
      "properties": {
        "Point": "Rogelio Martínez Furé (1950-1960s)",
        "Description": "Shared Afro-Marxist debates"
      },
      "geometry": {
        "type": "Point",
        "coordinates": [
          -81.5775,
          23.0518
        ]
      }
    },
    {
      "type": "Feature",
      "properties": {
        "Point": "Nancy Morejón",
        "Description": "Major Afro-Cuban poet of post-revolutionary Cuba"
      },
      "geometry": {
        "type": "Point",
        "coordinates": [
          -82.3666,
          23.1136
        ]
      }
    }
  ]
}
